NORAD_CAT_ID,OBJECT_NAME,OBJECT_TYPE,EPOCH,MEAN_MOTION,ECCENTRICITY,INCLINATION,RA_OF_ASC_NODE,ARG_OF_PERICENTER,MEAN_ANOMALY,BSTAR,MEAN_MOTION_DOT,MEAN_MOTION_DDOT,TLE_LINE0,TLE_LINE1,TLE_LINE2,SEMIMAJOR_AXIS,PERIOD,APOGEE,PERIGEE,DECAYED
53135.0,STARLINK-4023,PAYLOAD,2022-11-22 00:48:30,15.08828834,0.0002406,53.2169,177.5513,37.5128,322.6032,-5.8459e-05,-1.218e-05,0.0,0 STARLINK-4023,1 53135U 22083D   22326.03368311 -.00001218  00000-0 -58459-4 0  9991,2 53135  53.2169 177.5513 0002406  37.5128 322.6032 15.08828834 20133,6917.915,95.438,541.444,538.115,0.0
53135.0,STARLINK-4023,PAYLOAD,2022-11-22 19:53:08,15.08828305,0.0002509,53.2169,173.9832,38.3082,321.8088,3.0386e-05,1.95e-06,0.0,0 STARLINK-4023,1 53135U 22083D   22326.82856587  .00000195  00000-0  30386-4 0  9995,2 53135  53.2169 173.9832 0002509  38.3082 321.8088 15.08828305 20617,6917.916,95.438,541.5169999999998,538.045,0.0
53135.0,STARLINK-4023,PAYLOAD,2022-11-23 07:00:50,15.08831868,0.0002531,53.2171,171.9017,39.1032,321.0143,3.9608e-05,3.42e-06,0.0,0 STARLINK-4023,1 53135U 22083D   22327.29224679  .00000342  00000-0  39608-4 0  9998,2 53135  53.2171 171.9017 0002531  39.1032 321.0143 15.08831868 20322,6917.905,95.438,541.521,538.019,0.0
53135.0,STARLINK-4023,PAYLOAD,2022-11-23 21:19:18,15.08830247,0.0002626,53.2173,169.2265,39.5951,320.5233,0.00011696,1.573e-05,0.0,0 STARLINK-4023,1 53135U 22083D   22327.88840910  .00001573  00000-0  11696-3 0  9998,2 53135  53.2173 169.2265 0002626  39.5951 320.5233 15.08830247 20771,6917.91,95.438,541.592,537.9590000000002,0.0
53135.0,STARLINK-4023,PAYLOAD,2022-11-24 06:51:37,15.08834491,0.0002633,53.2171,167.4419,40.7213,319.3975,0.00013077,1.793e-05,0.0,0 STARLINK-4023,1 53135U 22083D   22328.28584888  .00001793  00000-0  13077-3 0  9991,2 53135  53.2171 167.4419 0002633  40.7213 319.3975 15.08834491 20834,6917.897,95.438,541.5840000000002,537.941,0.0
53135.0,STARLINK-4023,PAYLOAD,2022-11-24 19:34:42,15.08839373,0.0002641,53.2171,165.0627,42.3843,317.7353,0.00011099,1.478e-05,0.0,0 STARLINK-4023,1 53135U 22083D   22328.81576804  .00001478  00000-0  11099-3 0  9991,2 53135  53.2171 165.0627 0002641  42.3843 317.7353 15.08839373 20550,6917.882,95.438,541.5740000000002,537.92,0.0
53135.0,STARLINK-4023,PAYLOAD,2022-11-25 06:42:24,15.08841871,0.0002679,53.2171,162.9812,43.4771,316.6432,0.00011146,1.486e-05,0.0,0 STARLINK-4023,1 53135U 22083D   22329.27944601  .00001486  00000-0  11146-3 0  9998,2 53135  53.2171 162.9812 0002679  43.4771 316.6432 15.08841871 20984,6917.875,95.437,541.5930000000002,537.886,0.0
53135.0,STARLINK-4023,PAYLOAD,2022-11-25 19:25:28,15.08847498,0.0002703,53.2169,160.6022,44.5322,315.5887,0.00012385,1.684e-05,0.0,0 STARLINK-4023,1 53135U 22083D   22329.80936170  .00001684  00000-0  12385-3 0  9995,2 53135  53.2169 160.6022 0002703  44.5322 315.5887 15.08847498 21064,6917.857,95.437,541.592,537.8530000000002,0.0
53135.0,STARLINK-4023,PAYLOAD,2022-11-25 22:36:14,15.08849347,0.000272,53.217,160.0075,44.8589,315.2622,0.00012357,1.679e-05,0.0,0 STARLINK-4023,1 53135U 22083D   22329.94184024  .00001679  00000-0  12357-3 0  9996,2 53135  53.2170 160.0075 0002720  44.8589 315.2622 15.08849347 20726,6917.852,95.437,541.5980000000002,537.835,0.0
53135.0,STARLINK-4023,PAYLOAD,2022-11-26 17:40:52,15.08844776,0.0002754,53.2171,156.439,46.3913,313.7307,4.2437e-05,3.87e-06,0.0,0 STARLINK-4023,1 53135U 22083D   22330.73672159  .00000387  00000-0  42437-4 0  9994,2 53135  53.2171 156.4390 0002754  46.3913 313.7307 15.08844776 21209,6917.866,95.437,541.636,537.826,0.0
53135.0,STARLINK-4023,PAYLOAD,2022-11-26 22:27:02,15.08840222,0.0002763,53.2171,155.5471,45.8277,314.2942,-1.2231e-05,-4.83e-06,0.0,0 STARLINK-4023,1 53135U 22083D   22330.93544543 -.00000483  00000-0 -12231-4 0  9999,2 53135  53.2171 155.5471 0002763  45.8277 314.2942 15.08840222 20871,6917.88,95.438,541.656,537.8330000000002,0.0
53135.0,STARLINK-4023,PAYLOAD,2022-11-27 11:10:07,15.08842077,0.0002786,53.2173,153.1679,46.6548,313.4676,-7.046799999999997e-06,-4.01e-06,0.0,0 STARLINK-4023,1 53135U 22083D   22331.46536246 -.00000401  00000-0 -70468-5 0  9996,2 53135  53.2173 153.1679 0002786  46.6548 313.4676 15.08842077 21317,6917.874,95.437,541.6659999999998,537.812,0.0
53135.0,STARLINK-4023,PAYLOAD,2022-11-27 19:07:02,15.0884332,0.0002809,53.2172,151.6812,47.2573,312.8655,-3.2204e-06,-3.4e-06,0.0,0 STARLINK-4023,1 53135U 22083D   22331.79656068 -.00000340  00000-0 -32204-5 0  9995,2 53135  53.2172 151.6812 0002809  47.2573 312.8655 15.08843320 21366,6917.87,95.437,541.678,537.7919999999998,0.0
53135.0,STARLINK-4023,PAYLOAD,2022-11-27 23:53:12,15.08844859,0.0002816,53.2171,150.7892,46.9743,313.1485,-9.7876e-06,-4.44e-06,0.0,0 STARLINK-4023,1 53135U 22083D   22331.99527967 -.00000444  00000-0 -97876-5 0  9993,2 53135  53.2171 150.7892 0002816  46.9743 313.1485 15.08844859 21033,6917.866,95.437,541.679,537.7819999999998,0.0
53135.0,STARLINK-4023,PAYLOAD,2022-11-28 14:11:40,15.08831667,0.0002782,53.2169,148.1134,48.8873,311.2359,1.2198e-05,-9.4e-07,0.0,0 STARLINK-4023,1 53135U 22083D   22332.59144582 -.00000094  00000-0  12198-4 0  9991,2 53135  53.2169 148.1134 0002782  48.8873 311.2359 15.08831667 21129,6917.906,95.438,541.695,537.846,0.0
53135.0,STARLINK-4023,PAYLOAD,2022-11-28 20:33:14,15.08819588,0.0002732,53.217,146.9235,47.1505,312.9716,-0.00010045,-1.886e-05,0.0,0 STARLINK-4023,1 53135U 22083D   22332.85641890 -.00001886  00000-0 -10045-3 0  9993,2 53135  53.2170 146.9235 0002732  47.1505 312.9716 15.08819588 21165,6917.943,95.439,541.698,537.918,0.0
53135.0,STARLINK-4023,PAYLOAD,2022-11-29 20:24:02,15.08824061,0.0002738,53.2174,142.4632,48.728,311.3948,-6.5098e-05,-1.324e-05,0.0,0 STARLINK-4023,1 53135U 22083D   22333.85002576 -.00001324  00000-0 -65098-4 0  9992,2 53135  53.2174 142.4632 0002738  48.7280 311.3948 15.08824061 21672,6917.929,95.439,541.688,537.9,0.0
53135.0,STARLINK-4023,PAYLOAD,2022-11-29 21:59:25,15.08825967,0.0002726,53.2177,142.1656,48.1336,311.9889,-5.7673e-05,-1.206e-05,0.0,0 STARLINK-4023,1 53135U 22083D   22333.91626498 -.00001206  00000-0 -57673-4 0  9993,2 53135  53.2177 142.1656 0002726  48.1336 311.9889 15.08825967 21329,6917.9230000000025,95.438,541.674,537.9019999999998,0.0
53135.0,STARLINK-4023,PAYLOAD,2022-11-30 13:53:17,15.087787699999998,0.0002254,53.2171,139.1915,56.1329,303.9877,0.00070194,0.00010882,0.0,0 STARLINK-4023,1 53135U 22083D   22334.57867844  .00010882  00000-0  70194-3 0  9998,2 53135  53.2171 139.1915 0002254  56.1329 303.9877 15.08778770 21422,6918.068,95.441,541.492,538.373,0.0
53135.0,STARLINK-4023,PAYLOAD,2022-11-30 20:14:48,15.08835542,0.0002824,53.2169,138.0026,48.1508,311.9725,0.00021877,3.195e-05,0.0,0 STARLINK-4023,1 53135U 22083D   22334.84361771  .00003195  00000-0  21877-3 0  9999,2 53135  53.2169 138.0026 0002824  48.1508 311.9725 15.08835542 21469,6917.894,95.438,541.7130000000002,537.805,0.0
53135.0,STARLINK-4023,PAYLOAD,2022-12-01 04:11:43,15.08841115,0.0002788,53.2172,136.5158,49.31399999999999,310.8094,0.00025276,3.737e-05,0.0,0 STARLINK-4023,1 53135U 22083D   22335.17481478  .00003737  00000-0  25276-3 0  9992,2 53135  53.2172 136.5158 0002788  49.3140 310.8094 15.08841115 21871,6917.877,95.437,541.6709999999998,537.813,0.0
53135.0,STARLINK-4023,PAYLOAD,2022-12-01 15:19:25,15.08848971,0.0002768999999999,53.217,134.4345,49.3864,310.7369,0.00025573,3.785e-05,0.0,0 STARLINK-4023,1 53135U 22083D   22335.63849004  .00003785  00000-0  25573-3 0  9999,2 53135  53.2170 134.4345 0002769  49.3864 310.7369 15.08848971 21585,6917.853,95.437,541.634,537.802,0.0
53135.0,STARLINK-4023,PAYLOAD,2022-12-01 20:05:34,15.08851083,0.000279,53.217,133.5424,49.8495,310.2741,0.0002653,3.938e-05,0.0,0 STARLINK-4023,1 53135U 22083D   22335.83720828  .00003938  00000-0  26530-3 0  9997,2 53135  53.2170 133.5424 0002790  49.8495 310.2741 15.08851083 21972,6917.847,95.437,541.6419999999998,537.781,0.0
53135.0,STARLINK-4023,PAYLOAD,2022-12-02 04:02:31,15.08839166,0.0002742,53.2168,132.0554,50.217,309.9063,0.00013848,1.916e-05,0.0,0 STARLINK-4023,1 53135U 22083D   22336.16841838  .00001916  00000-0  13848-3 0  9991,2 53135  53.2168 132.0554 0002742  50.2170 309.9063 15.08839166 21666,6917.8830000000025,95.438,541.645,537.851,0.0
53135.0,STARLINK-4023,PAYLOAD,2022-12-02 16:45:35,15.08856157,0.0002583999999999,53.2171,129.6755,50.1999,309.922,4.2929e-05,3.95e-06,0.0,0 STARLINK-4023,1 53135U 22083D   22336.69832771  .00000395  00000-0  42929-4 0  9998,2 53135  53.2171 129.6755 0002584  50.1999 309.9220 15.08856157 21740,6917.831,95.437,541.484,537.908,0.0
53135.0,STARLINK-4023,PAYLOAD,2022-12-02 19:56:21,15.08857236,0.0002598,53.2172,129.08100000000002,50.1396,309.9824,4.9675e-05,5.03e-06,0.0,0 STARLINK-4023,1 53135U 22083D   22336.83080542  .00000503  00000-0  49675-4 0  9991,2 53135  53.2172 129.0810 0002598  50.1396 309.9824 15.08857236 22125,6917.828,95.436,541.49,537.895,0.0
53135.0,STARLINK-4023,PAYLOAD,2022-12-03 10:14:50,15.08848632,0.0002725,53.2174,126.4051,50.0053,310.1178,-4.761e-05,-1.046e-05,0.0,0 STARLINK-4023,1 53135U 22083D   22337.42696995 -.00001046  00000-0 -47610-4 0  9994,2 53135  53.2174 126.4051 0002725  50.0053 310.1178 15.08848632 21851,6917.854,95.437,541.604,537.8340000000002,0.0
53135.0,STARLINK-4023,PAYLOAD,2022-12-03 13:25:36,15.08850148,0.0002669,53.2172,125.8106,49.7378,310.3848,-3.4445e-05,-8.37e-06,0.0,0 STARLINK-4023,1 53135U 22083D   22337.55944709 -.00000837  00000-0 -34445-4 0  9996,2 53135  53.2172 125.8106 0002669  49.7378 310.3848 15.08850148 22239,6917.849,95.437,541.561,537.868,0.0
53135.0,STARLINK-4023,PAYLOAD,2022-12-03 16:36:22,15.088506,0.0002641,53.2173,125.2157,50.5832,309.5394,-2.4609e-05,-6.8e-06,0.0,0 STARLINK-4023,1 53135U 22083D   22337.69192624 -.00000680  00000-0 -24609-4 0  9999,2 53135  53.2173 125.2157 0002641  50.5832 309.5394 15.08850600 22256,6917.848000000001,95.437,541.54,537.886,0.0
